[
    {
        "CCSDS_OMM_VERS": "3.0",
        "COMMENT": "GENERATED VIA SPACE-TRACK.ORG API",
        "CREATION_DATE": "2025-05-03T17:28:03",
        "ORIGINATOR": "18 SPCS",
        "OBJECT_NAME": "COSMOS 2465 (GLONASS)",
        "OBJECT_ID": "2010-041B",
        "CENTER_NAME": "EARTH",
        "REF_FRAME": "TEME",
        "TIME_SYSTEM": "UTC",
        "MEAN_ELEMENT_THEORY": "SGP4",
        "EPOCH": "2025-05-03T09:32:38.752800",
        "MEAN_MOTION": "2.13098287",
        "ECCENTRICITY": "0.00406470",
        "INCLINATION": "63.9068",
        "RA_OF_ASC_NODE": "204.2751",
        "ARG_OF_PERICENTER": "179.6444",
        "MEAN_ANOMALY": "179.5736",
        "EPHEMERIS_TYPE": "0",
        "CLASSIFICATION_TYPE": "U",
        "NORAD_CAT_ID": "37138",
        "ELEMENT_SET_NO": "999",
        "REV_AT_EPOCH": "11412",
        "BSTAR": "0.00000000000000",
        "MEAN_MOTION_DOT": "-0.00000015",
        "MEAN_MOTION_DDOT": "0.0000000000000",
        "SEMIMAJOR_AXIS": "25508.321",
        "PERIOD": "675.745",
        "APOAPSIS": "19233.869",
        "PERIAPSIS": "19026.502",
        "OBJECT_TYPE": "PAYLOAD",
        "RCS_SIZE": "LARGE",
        "COUNTRY_CODE": "CIS",
        "LAUNCH_DATE": "2010-09-02",
        "SITE": "TTMTR",
        "DECAY_DATE": null,
        "FILE": "4717971",
        "GP_ID": "286758106",
        "TLE_LINE0": "0 COSMOS 2465 (GLONASS)",
        "TLE_LINE1": "1 37138U 10041B   25123.39767075 -.00000015  00000-0  00000-0 0  9992",
        "TLE_LINE2": "2 37138  63.9068 204.2751 0040647 179.6444 179.5736  2.13098287114120"
    }
]